{
  "type": "FeatureCollection",
  "features": [
    {
      "type": "Feature",
      "properties": {
        "norad_id": 36744,
        "name": "COMS 1",
        "group": "weather",
        "lat": 1.0061974689885775,
        "lon": 91.02046854599548,
        "alt_km": 35789.43518476622,
        "timestamp": "2025-12-15T15:53:19.524867+00:00",
        "meta_object_name": "COMS 1",
        "meta_object_id": "2010-032A",
        "meta_epoch": "2025-12-14T17:27:08.021952",
        "meta_mean_motion": 1.00272227,
        "meta_eccentricity": 8.196e-05,
        "meta_inclination": 4.3456,
        "meta_ra_of_asc_node": 77.9774,
        "meta_arg_of_pericenter": 191.33,
        "meta_mean_anomaly": 204.2869,
        "meta_ephemeris_type": 0,
        "meta_classification_type": "U",
        "meta_norad_cat_id": 36744,
        "meta_element_set_no": 999,
        "meta_rev_at_epoch": 4924,
        "meta_bstar": 0,
        "meta_mean_motion_dot": -3.27e-06,
        "meta_mean_motion_ddot": 0,
        "tle_line1": "1 36744U 10032A   25348.72717618 -.00000327  00000+0  00000+0 0  9992",
        "tle_line2": "2 36744   4.3456  77.9774 0000819 191.3300 204.2869  1.00272227 49247"
      },
      "geometry": {
        "type": "Point",
        "coordinates": [
          91.02046854599548,
          1.0061974689885775
        ]
      }
    },
    {
      "type": "Feature",
      "properties": {
        "norad_id": 37214,
        "name": "FENGYUN 3B",
        "group": "weather",
        "lat": 28.979152895649246,
        "lon": -145.30973053014523,
        "alt_km": 856.5822403936327,
        "timestamp": "2025-12-15T15:53:19.524877+00:00",
        "meta_object_name": "FENGYUN 3B",
        "meta_object_id": "2010-059A",
        "meta_epoch": "2025-12-14T22:40:29.470656",
        "meta_mean_motion": 14.14789374,
        "meta_eccentricity": 0.002198,
        "meta_inclination": 98.9912,
        "meta_ra_of_asc_node": 28.9375,
        "meta_arg_of_pericenter": 351.6996,
        "meta_mean_anomaly": 107.6696,
        "meta_ephemeris_type": 0,
        "meta_classification_type": "U",
        "meta_norad_cat_id": 37214,
        "meta_element_set_no": 999,
        "meta_rev_at_epoch": 78137,
        "meta_bstar": -5.5182326e-05,
        "meta_mean_motion_dot": -1.52e-06,
        "meta_mean_motion_ddot": 0,
        "tle_line1": "1 37214U 10059A   25348.94478554 -.00000152  00000+0 -55182-4 0  9994",
        "tle_line2": "2 37214  98.9912  28.9375 0021980 351.6996 107.6696 14.14789374781379"
      },
      "geometry": {
        "type": "Point",
        "coordinates": [
          -145.30973053014523,
          28.979152895649246
        ]
      }
    },
    {
      "type": "Feature",
      "properties": {
        "norad_id": 37849,
        "name": "SUOMI NPP",
        "group": "weather",
        "lat": 40.14356815462006,
        "lon": -80.51005533343142,
        "alt_km": 823.3336515799874,
        "timestamp": "2025-12-15T15:53:19.524888+00:00",
        "meta_object_name": "SUOMI NPP",
        "meta_object_id": "2011-061A",
        "meta_epoch": "2025-12-14T22:46:51.149568",
        "meta_mean_motion": 14.19514817,
        "meta_eccentricity": 0.00023199,
        "meta_inclination": 98.7775,
        "meta_ra_of_asc_node": 286.2709,
        "meta_arg_of_pericenter": 116.1622,
        "meta_mean_anomaly": 243.9793,
        "meta_ephemeris_type": 0,
        "meta_classification_type": "U",
        "meta_norad_cat_id": 37849,
        "meta_element_set_no": 999,
        "meta_rev_at_epoch": 73230,
        "meta_bstar": 6.8752164e-05,
        "meta_mean_motion_dot": 1.01e-06,
        "meta_mean_motion_ddot": 0,
        "tle_line1": "1 37849U 11061A   25348.94920312  .00000101  00000+0  68752-4 0  9995",
        "tle_line2": "2 37849  98.7775 286.2709 0002319 116.1622 243.9793 14.19514817732307"
      },
      "geometry": {
        "type": "Point",
        "coordinates": [
          -80.51005533343142,
          40.14356815462006
        ]
      }
    },
    {
      "type": "Feature",
      "properties": {
        "norad_id": 38552,
        "name": "METEOSAT-10 (MSG-3)",
        "group": "weather",
        "lat": -4.195580685853188,
        "lon": -36.91851579076398,
        "alt_km": 35782.44245151272,
        "timestamp": "2025-12-15T15:53:19.524898+00:00",
        "meta_object_name": "METEOSAT-10 (MSG-3)",
        "meta_object_id": "2012-035B",
        "meta_epoch": "2025-12-14T21:58:49.499616",
        "meta_mean_motion": 1.00275651,
        "meta_eccentricity": 7.314e-05,
        "meta_inclination": 4.2339,
        "meta_ra_of_asc_node": 61.7192,
        "meta_arg_of_pericenter": 261.6595,
        "meta_mean_anomaly": 90.3598,
        "meta_ephemeris_type": 0,
        "meta_classification_type": "U",
        "meta_norad_cat_id": 38552,
        "meta_element_set_no": 999,
        "meta_rev_at_epoch": 4900,
        "meta_bstar": 0,
        "meta_mean_motion_dot": 1.3e-07,
        "meta_mean_motion_ddot": 0,
        "tle_line1": "1 38552U 12035B   25348.91585069  .00000013  00000+0  00000+0 0  9991",
        "tle_line2": "2 38552   4.2339  61.7192 0000731 261.6595  90.3598  1.00275651 49001"
      },
      "geometry": {
        "type": "Point",
        "coordinates": [
          -36.91851579076398,
          -4.195580685853188
        ]
      }
    },
    {
      "type": "Feature",
      "properties": {
        "norad_id": 38771,
        "name": "METOP-B",
        "group": "weather",
        "lat": -80.82950521449465,
        "lon": 110.69937007185675,
        "alt_km": 829.4636974389778,
        "timestamp": "2025-12-15T15:53:19.524909+00:00",
        "meta_object_name": "METOP-B",
        "meta_object_id": "2012-049A",
        "meta_epoch": "2025-12-14T21:42:51.739200",
        "meta_mean_motion": 14.21409092,
        "meta_eccentricity": 0.00029939,
        "meta_inclination": 98.6798,
        "meta_ra_of_asc_node": 38.8269,
        "meta_arg_of_pericenter": 139.392,
        "meta_mean_anomaly": 220.7481,
        "meta_ephemeris_type": 0,
        "meta_classification_type": "U",
        "meta_norad_cat_id": 38771,
        "meta_element_set_no": 999,
        "meta_rev_at_epoch": 68708,
        "meta_bstar": 8.4195919e-05,
        "meta_mean_motion_dot": 1.4e-06,
        "meta_mean_motion_ddot": 0,
        "tle_line1": "1 38771U 12049A   25348.90476550  .00000140  00000+0  84196-4 0  9996",
        "tle_line2": "2 38771  98.6798  38.8269 0002993 139.3920 220.7481 14.21409092687086"
      },
      "geometry": {
        "type": "Point",
        "coordinates": [
          110.69937007185675,
          -80.82950521449465
        ]
      }
    },
    {
      "type": "Feature",
      "properties": {
        "norad_id": 39216,
        "name": "INSAT-3D",
        "group": "weather",
        "lat": 0.20910906423195552,
        "lon": 92.38491822043665,
        "alt_km": 35792.09783961234,
        "timestamp": "2025-12-15T15:53:19.524919+00:00",
        "meta_object_name": "INSAT-3D",
        "meta_object_id": "2013-038B",
        "meta_epoch": "2025-12-14T22:35:45.962016",
        "meta_mean_motion": 1.00269092,
        "meta_eccentricity": 0.0001318,
        "meta_inclination": 1.4504,
        "meta_ra_of_asc_node": 84.9722,
        "meta_arg_of_pericenter": 165.5357,
        "meta_mean_anomaly": 301.802,
        "meta_ephemeris_type": 0,
        "meta_classification_type": "U",
        "meta_norad_cat_id": 39216,
        "meta_element_set_no": 999,
        "meta_rev_at_epoch": 4523,
        "meta_bstar": 0,
        "meta_mean_motion_dot": -3.2e-06,
        "meta_mean_motion_ddot": 0,
        "tle_line1": "1 39216U 13038B   25348.94150419 -.00000320  00000+0  00000+0 0  9995",
        "tle_line2": "2 39216   1.4504  84.9722 0001318 165.5357 301.8020  1.00269092 45231"
      },
      "geometry": {
        "type": "Point",
        "coordinates": [
          92.38491822043665,
          0.20910906423195552
        ]
      }
    },
    {
      "type": "Feature",
      "properties": {
        "norad_id": 39260,
        "name": "FENGYUN 3C",
        "group": "weather",
        "lat": 77.11581373449943,
        "lon": -172.11273688067394,
        "alt_km": 832.2474567652998,
        "timestamp": "2025-12-15T15:53:19.524929+00:00",
        "meta_object_name": "FENGYUN 3C",
        "meta_object_id": "2013-052A",
        "meta_epoch": "2025-12-14T22:27:22.326912",
        "meta_mean_motion": 14.15696934,
        "meta_eccentricity": 0.00144006,
        "meta_inclination": 98.4765,
        "meta_ra_of_asc_node": 326.5079,
        "meta_arg_of_pericenter": 189.5606,
        "meta_mean_anomaly": 170.5297,
        "meta_ephemeris_type": 0,
        "meta_classification_type": "U",
        "meta_norad_cat_id": 39260,
        "meta_element_set_no": 999,
        "meta_rev_at_epoch": 63249,
        "meta_bstar": 7.7924438e-05,
        "meta_mean_motion_dot": 1.12e-06,
        "meta_mean_motion_ddot": 0,
        "tle_line1": "1 39260U 13052A   25348.93567508  .00000112  00000+0  77924-4 0  9992",
        "tle_line2": "2 39260  98.4765 326.5079 0014400 189.5606 170.5297 14.15696934632490"
      },
      "geometry": {
        "type": "Point",
        "coordinates": [
          -172.11273688067394,
          77.11581373449943
        ]
      }
    }
  ]
}